0 SL-16 DEB
1 16392U 85097F   13281.47746881 -.00000036  00000-0  59337-5 0  9374
2 16392 070.9693 314.0357 0200366 039.6815 027.5536 13.74062862401584
0 SL-16 DEB
1 16392U 85097F   13283.53519042 -.00000001  00000-0  38502-4 0  9383
2 16392 070.9700 309.9928 0200341 036.7662 126.3378 13.74062936401866
0 SL-16 DEB
1 16392U 85097F   13286.05662690 -.00000001  00000-0  38404-4 0  9393
2 16392 070.9697 305.0364 0200486 033.1793 358.9623 13.74063611402215
0 SL-16 DEB
1 16392U 85097F   13288.09965538  .00000004  00000-0  42876-4 0  9408
2 16392 070.9696 301.0202 0200587 030.2789 025.0750 13.74064051402498
0 SL-16 DEB
1 16392U 85097F   13290.13969456  .00000015  00000-0  53209-4 0  9414
2 16392 070.9698 297.0097 0200688 027.3823 036.4061 13.74064538402776
0 SL-16 DEB
1 16392U 85097F   13292.17931884  .00000055  00000-0  89505-4 0  9427
2 16392 070.9700 293.0001 0200784 024.4867 045.6886 13.74064810403056
0 SL-16 DEB
1 16392U 85097F   13294.45274100  .00000110  00000-0  14028-3 0  9431
2 16392 070.9701 288.5312 0200926 021.2623 131.4844 13.74065262403368
